TANAGER-1               
1 60507U 24149AR  26164.20849288  .00002902  00000+0  63592-4 0  9999
2 60507  97.2655 258.4614 0003284 320.6725  39.4285 15.44929437102424
EAGLEEYE                
1 60508U 24149AS  26164.21998455  .00093142  00000+0  76301-3 0  9999
2 60508  97.3730 257.3398 0003848 246.3350 113.7509 15.70214822102318
FLOCK 4BE-29            
1 60509U 24149AT  26164.22686751  .00017525  00000+0  38577-3 0  9998
2 60509  97.3819 250.0400 0001471 322.1401  37.9743 15.44023088101804
TRANSPORTER-11 OBJECT AU
1 60510U 24149AU  26164.22471536  .00014840  00000+0  37231-3 0  9996
2 60510  97.3737 247.9134 0002343 313.0447  47.0603 15.40119114101700
FLOCK 4BE-2             
1 60511U 24149AV  26164.19193348  .00052989  00000+0  86847-3 0  9998
2 60511  97.3842 251.3728 0003016 270.0282  90.0625 15.52298781101885
FLOCK 4BE-13            
1 60512U 24149AW  26164.19704784  .00014321  00000+0  34016-3 0  9990
2 60512  97.3727 248.5669 0002769 280.8478  79.2458 15.41788741101757
FLOCK 4BE-27            
1 60513U 24149AX  26164.21643861  .00009242  00000+0  27990-3 0  9991
2 60513  97.3832 246.0653 0002775 336.5596  23.5520 15.34382020101538
FLOCK 4BE-9             
1 60514U 24149AY  26164.19334512  .00016373  00000+0  40297-3 0  9997
2 60514  97.3799 248.4261 0001492 325.5383  34.5767 15.40683059101706
FLOCK 4BE-6             
1 60516U 24149BA  26164.21896655  .00014247  00000+0  36517-3 0  9991
2 60516  97.3798 247.8179 0002147 319.3098  40.7987 15.39473407101660
FLOCK 4BE-14            
1 60517U 24149BB  26164.20633025  .00017054  00000+0  41691-3 0  9999
2 60517  97.3705 247.9378 0003076 313.3517  46.7473 15.40876648101711
FLOCK 4BE-1             
1 60518U 24149BC  26164.22639347  .00017159  00000+0  39781-3 0  9998
2 60518  97.3785 249.2211 0002843 310.7580  49.3420 15.42476716101763
FLOCK 4BE-28            
1 60519U 24149BD  26164.18174808  .00019310  00000+0  41400-3 0  9992
2 60519  97.3751 249.8882 0002871 304.9922  55.1057 15.44781979101823
IPERDRONE.0             
1 60520U 24149BE  26164.21795246  .00073959  00000+0  71759-3 0  9992
2 60520  97.3783 257.2351 0003287 234.9212 125.1740 15.66112178102292
TRANSPORTER-11 OBJECT BF
1 60521U 24149BF  26164.21209933  .00235107  00000+0  10799-2 0  9997
2 60521  97.3767 259.8481 0005767 239.5313 120.5387 15.83003352102451
CONNECTA IOT-2          
1 60522U 24149BG  26163.91213502  .00004615  00000+0  19374-3 0  9998
2 60522  97.3844 242.1223 0005928 354.5927   5.5246 15.23940550101241
PTD-R (TYVAK-0127)      
1 60523U 24149BH  26164.26778756  .02107672  24447-5  78787-3 0  9994
2 60523  97.3756 264.9883 0012021 265.2801  94.7117 16.24268330102811
CONNECTA IOT-4          
1 60524U 24149BJ  26164.18413307  .00018599  00000+0  43770-3 0  9998
2 60524  97.3807 248.5064 0003949 303.3712  56.7156 15.42004698101715
ORESAT0.5               
1 60525U 24149BK  26164.23220866  .00019976  00000+0  42583-3 0  9992
2 60525  97.3727 250.1716 0004043 291.7880  68.2938 15.44940253101862
DEIMOS                  
1 60526U 24149BL  26164.19743674  .00019008  00000+0  41715-3 0  9997
2 60526  97.3786 250.2790 0004058 301.4416  58.6435 15.44090104101834
CUAVA-2                 
1 60527U 24149BM  26163.97912650  .00013122  00000+0  37600-3 0  9994
2 60527  97.3731 245.4911 0005344 314.2148  45.8657 15.36025719101520
ERNST                   
1 60528U 24149BN  26164.20402500  .00014414  00000+0  37372-3 0  9991
2 60528  97.3816 247.8936 0004607 317.6411  42.4478 15.39111197101667
TORO                    
1 60530U 24149BQ  26164.16084278  .00002305  00000+0  20840-3 0  9995
2 60530  97.6790 238.9038 0001684  85.6444 274.4970 14.96411670 99355
HYPSO-2                 
1 60531U 24149BR  26164.19496047  .00002121  00000+0  18095-3 0  9995
2 60531  97.6819 240.5147 0000895  32.6666 327.4612 14.98772838 99450
LEMU NGE                
1 60532U 24149BS  26164.10223017  .00002498  00000+0  23399-3 0  9992
2 60532  97.6849 239.1441 0002436  71.2991 288.8494 14.94941858 99340
LEMUR-2-STELLA          
1 60533U 24149BT  26163.97803499  .00013021  00000+0  76728-3 0  9993
2 60533  97.6742 246.4142 0001579  97.5198 262.6211 15.11722144 99868
SATELIOT_2              
1 60534U 24149BU  26164.21469493  .00002102  00000+0  19081-3 0  9991
2 60534  97.6828 239.2429 0001965 100.1805 259.9638 14.96346094 99373
NIGHTJAR                
1 60535U 24149BV  26164.18703222  .00002217  00000+0  18783-3 0  9994
2 60535  97.6855 240.9500 0001736  78.6372 281.5046 14.99001797142270
LEMUR-2-MARHISYAM       
1 60536U 24149BW  26164.28790169  .00010845  00000+0  64937-3 0  9990
2 60536  97.6891 247.1707 0003389 123.1020 237.0535 15.11187850 99899
SATELIOT_4              
1 60537U 24149BX  26164.15948896  .00002281  00000+0  20497-3 0  9997
2 60537  97.6741 238.7193 0003457  70.7818 289.3777 14.96656473 99372
PICO-02A021             
1 60538U 24149BY  26163.70658029  .00006572  00000+0  48997-3 0  9996
2 60538  97.6744 242.5761 0005112  39.5779 320.5819 15.03207412 99064
