OBJECT_NAME,OBJECT_ID,EPOCH,MEAN_MOTION,ECCENTRICITY,INCLINATION,RA_OF_ASC_NODE,ARG_OF_PERICENTER,MEAN_ANOMALY,EPHEMERIS_TYPE,CLASSIFICATION_TYPE,NORAD_CAT_ID,ELEMENT_SET_NO,REV_AT_EPOCH,BSTAR,MEAN_MOTION_DOT,MEAN_MOTION_DDOT
TANAGER-1,2024-149AR,2026-06-13T05:00:13.784832,15.44929437,.00032844,97.2655,258.4614,320.6725,39.4285,0,U,60507,999,10242,.63591827E-4,.2902E-4,0
EAGLEEYE,2024-149AS,2026-06-13T05:16:46.665120,15.70214822,.00038489,97.3730,257.3398,246.3350,113.7509,0,U,60508,999,10231,.76300795E-3,.93142E-3,0
FLOCK 4BE-29,2024-149AT,2026-06-13T05:26:41.352864,15.44023088,.00014713,97.3819,250.0400,322.1401,37.9743,0,U,60509,999,10180,.38577069E-3,.17525E-3,0
TRANSPORTER-11 OBJECT AU,2024-149AU,2026-06-13T05:23:35.407104,15.40119114,.00023436,97.3737,247.9134,313.0447,47.0603,0,U,60510,999,10170,.37230633E-3,.1484E-3,0
FLOCK 4BE-2,2024-149AV,2026-06-13T04:36:23.052672,15.52298781,.00030161,97.3842,251.3728,270.0282,90.0625,0,U,60511,999,10188,.86846745E-3,.52989E-3,0
FLOCK 4BE-13,2024-149AW,2026-06-13T04:43:44.933376,15.41788741,.00027697,97.3727,248.5669,280.8478,79.2458,0,U,60512,999,10175,.34015661E-3,.14321E-3,0
FLOCK 4BE-27,2024-149AX,2026-06-13T05:11:40.295904,15.34382020,.00027753,97.3832,246.0653,336.5596,23.5520,0,U,60513,999,10153,.27990457E-3,.9242E-4,0
FLOCK 4BE-9,2024-149AY,2026-06-13T04:38:25.018368,15.40683059,.00014925,97.3799,248.4261,325.5383,34.5767,0,U,60514,999,10170,.40297399E-3,.16373E-3,0
FLOCK 4BE-6,2024-149BA,2026-06-13T05:15:18.709920,15.39473407,.00021473,97.3798,247.8179,319.3098,40.7987,0,U,60516,999,10166,.36516721E-3,.14247E-3,0
FLOCK 4BE-14,2024-149BB,2026-06-13T04:57:06.933600,15.40876648,.00030763,97.3705,247.9378,313.3517,46.7473,0,U,60517,999,10171,.41690589E-3,.17054E-3,0
FLOCK 4BE-1,2024-149BC,2026-06-13T05:26:00.395808,15.42476716,.00028436,97.3785,249.2211,310.7580,49.3420,0,U,60518,999,10176,.39781225E-3,.17159E-3,0
FLOCK 4BE-28,2024-149BD,2026-06-13T04:21:43.034112,15.44781979,.00028712,97.3751,249.8882,304.9922,55.1057,0,U,60519,999,10182,.41400366E-3,.1931E-3,0
IPERDRONE.0,2024-149BE,2026-06-13T05:13:51.092544,15.66112178,.0003287,97.3783,257.2351,234.9212,125.1740,0,U,60520,999,10229,.71759071E-3,.73959E-3,0
TRANSPORTER-11 OBJECT BF,2024-149BF,2026-06-13T05:05:25.382112,15.83003352,.0005767,97.3767,259.8481,239.5313,120.5387,0,U,60521,999,10245,.1079887E-2,.235107E-2,0
CONNECTA IOT-2,2024-149BG,2026-06-12T21:53:28.465728,15.23940550,.00059281,97.3844,242.1223,354.5927,5.5246,0,U,60522,999,10124,.19373617E-3,.4615E-4,0
PTD-R (TYVAK-0127),2024-149BH,2026-06-13T06:25:36.845184,16.24268330,.00120219,97.3756,264.9883,265.2801,94.7117,0,U,60523,999,10281,.7878692E-3,.2107672E-1,.244474E-5
CONNECTA IOT-4,2024-149BJ,2026-06-13T04:25:09.097248,15.42004698,.00039495,97.3807,248.5064,303.3712,56.7156,0,U,60524,999,10171,.43770354E-3,.18599E-3,0
ORESAT0.5,2024-149BK,2026-06-13T05:34:22.828224,15.44940253,.00040431,97.3727,250.1716,291.7880,68.2938,0,U,60525,999,10186,.42582887E-3,.19976E-3,0
DEIMOS,2024-149BL,2026-06-13T04:44:18.534336,15.44090104,.00040588,97.3786,250.2790,301.4416,58.6435,0,U,60526,999,10183,.41715042E-3,.19008E-3,0
CUAVA-2,2024-149BM,2026-06-12T23:29:56.529600,15.36025719,.0005344,97.3731,245.4911,314.2148,45.8657,0,U,60527,999,10152,.37600092E-3,.13122E-3,0
ERNST,2024-149BN,2026-06-13T04:53:47.760000,15.39111197,.00046076,97.3816,247.8936,317.6411,42.4478,0,U,60528,999,10166,.37371577E-3,.14414E-3,0
TORO,2024-149BQ,2026-06-13T03:51:36.816192,14.96411670,.00016847,97.6790,238.9038,85.6444,274.4970,0,U,60530,999,9935,.20840128E-3,.2305E-4,0
HYPSO-2,2024-149BR,2026-06-13T04:40:44.584608,14.98772838,.0000895,97.6819,240.5147,32.6666,327.4612,0,U,60531,999,9945,.18094543E-3,.2121E-4,0
LEMU NGE,2024-149BS,2026-06-13T02:27:12.686688,14.94941858,.00024369,97.6849,239.1441,71.2991,288.8494,0,U,60532,999,9934,.23399261E-3,.2498E-4,0
LEMUR-2-STELLA,2024-149BT,2026-06-12T23:28:22.223136,15.11722144,.00015798,97.6742,246.4142,97.5198,262.6211,0,U,60533,999,9986,.76728276E-3,.13021E-3,0
SATELIOT_2,2024-149BU,2026-06-13T05:09:09.641952,14.96346094,.00019655,97.6828,239.2429,100.1805,259.9638,0,U,60534,999,9937,.19080732E-3,.2102E-4,0
NIGHTJAR,2024-149BV,2026-06-13T04:29:19.583808,14.99001797,.0001736,97.6855,240.9500,78.6372,281.5046,0,U,60535,999,14227,.18782996E-3,.2217E-4,0
LEMUR-2-MARHISYAM,2024-149BW,2026-06-13T06:54:34.706016,15.11187850,.00033899,97.6891,247.1707,123.1020,237.0535,0,U,60536,999,9989,.64936713E-3,.10845E-3,0
SATELIOT_4,2024-149BX,2026-06-13T03:49:39.846144,14.96656473,.00034572,97.6741,238.7193,70.7818,289.3777,0,U,60537,999,9937,.20496851E-3,.2281E-4,0
PICO-02A021,2024-149BY,2026-06-12T16:57:28.537056,15.03207412,.00051124,97.6744,242.5761,39.5779,320.5819,0,U,60538,999,9906,.48996502E-3,.6572E-4,0
